{
  "type": "FeatureCollection",
  "features": [
    {
      "type": "Feature",
      "properties": {
        "norad_id": 35915,
        "name": "IRIDIUM 33 DEB",
        "group": "iridium-33-debris",
        "lat": -86.03660543691008,
        "lon": -89.14697625343005,
        "alt_km": 638.3327465198772,
        "timestamp": "2025-12-23T05:02:12.415622+00:00",
        "meta_object_name": "IRIDIUM 33 DEB",
        "meta_object_id": "1997-051TY",
        "meta_epoch": "2025-12-22T16:27:49.238784",
        "meta_mean_motion": 14.80964903,
        "meta_eccentricity": 0.00122455,
        "meta_inclination": 86.3447,
        "meta_ra_of_asc_node": 338.4114,
        "meta_arg_of_pericenter": 150.5648,
        "meta_mean_anomaly": 209.6266,
        "meta_ephemeris_type": 0,
        "meta_classification_type": "U",
        "meta_norad_cat_id": 35915,
        "meta_element_set_no": 999,
        "meta_rev_at_epoch": 8233,
        "meta_bstar": 0.0017914035,
        "meta_mean_motion_dot": 0.00013917,
        "meta_mean_motion_ddot": 0,
        "tle_line1": "1 35915U 97051TY  25356.68598656  .00013917  00000+0  17914-2 0  9993",
        "tle_line2": "2 35915  86.3447 338.4114 0012245 150.5648 209.6266 14.80964903 82335"
      },
      "geometry": {
        "type": "Point",
        "coordinates": [
          -89.14697625343005,
          -86.03660543691008
        ]
      }
    },
    {
      "type": "Feature",
      "properties": {
        "norad_id": 35918,
        "name": "IRIDIUM 33 DEB",
        "group": "iridium-33-debris",
        "lat": 32.699244933872784,
        "lon": 73.6377575913567,
        "alt_km": 723.9246431307947,
        "timestamp": "2025-12-23T05:02:12.415632+00:00",
        "meta_object_name": "IRIDIUM 33 DEB",
        "meta_object_id": "1997-051UB",
        "meta_epoch": "2025-12-21T23:54:39.299616",
        "meta_mean_motion": 14.51316064,
        "meta_eccentricity": 0.00283531,
        "meta_inclination": 86.4007,
        "meta_ra_of_asc_node": 71.8428,
        "meta_arg_of_pericenter": 139.9313,
        "meta_mean_anomaly": 36.6776,
        "meta_ephemeris_type": 0,
        "meta_classification_type": "U",
        "meta_norad_cat_id": 35918,
        "meta_element_set_no": 999,
        "meta_rev_at_epoch": 85341,
        "meta_bstar": 0.0010087196,
        "meta_mean_motion_dot": 4.056e-05,
        "meta_mean_motion_ddot": 0,
        "tle_line1": "1 35918U 97051UB  25355.99628819  .00004056  00000+0  10087-2 0  9992",
        "tle_line2": "2 35918  86.4007  71.8428 0028353 139.9313  36.6776 14.51316064853410"
      },
      "geometry": {
        "type": "Point",
        "coordinates": [
          73.6377575913567,
          32.699244933872784
        ]
      }
    },
    {
      "type": "Feature",
      "properties": {
        "norad_id": 35929,
        "name": "IRIDIUM 33 DEB",
        "group": "iridium-33-debris",
        "lat": -78.57533177044508,
        "lon": -70.83801496720908,
        "alt_km": 563.1238005092591,
        "timestamp": "2025-12-23T05:02:12.415642+00:00",
        "meta_object_name": "IRIDIUM 33 DEB",
        "meta_object_id": "1997-051UN",
        "meta_epoch": "2025-12-19T03:54:47.819808",
        "meta_mean_motion": 15.02824577,
        "meta_eccentricity": 0.00169983,
        "meta_inclination": 86.3333,
        "meta_ra_of_asc_node": 309.5832,
        "meta_arg_of_pericenter": 16.9141,
        "meta_mean_anomaly": 343.2656,
        "meta_ephemeris_type": 0,
        "meta_classification_type": "U",
        "meta_norad_cat_id": 35929,
        "meta_element_set_no": 999,
        "meta_rev_at_epoch": 87876,
        "meta_bstar": 0.0020745591,
        "meta_mean_motion_dot": 0.00027961,
        "meta_mean_motion_ddot": 0,
        "tle_line1": "1 35929U 97051UN  25353.16305347  .00027961  00000+0  20746-2 0  9992",
        "tle_line2": "2 35929  86.3333 309.5832 0016998  16.9141 343.2656 15.02824577878767"
      },
      "geometry": {
        "type": "Point",
        "coordinates": [
          -70.83801496720908,
          -78.57533177044508
        ]
      }
    },
    {
      "type": "Feature",
      "properties": {
        "norad_id": 36011,
        "name": "IRIDIUM 33 DEB",
        "group": "iridium-33-debris",
        "lat": 68.62414619515033,
        "lon": 40.33895808065714,
        "alt_km": 752.3492477651662,
        "timestamp": "2025-12-23T05:02:12.415652+00:00",
        "meta_object_name": "IRIDIUM 33 DEB",
        "meta_object_id": "1997-051US",
        "meta_epoch": "2025-12-20T20:53:54.330144",
        "meta_mean_motion": 14.41351593,
        "meta_eccentricity": 0.0018529,
        "meta_inclination": 86.3402,
        "meta_ra_of_asc_node": 31.9321,
        "meta_arg_of_pericenter": 188.5725,
        "meta_mean_anomaly": 351.0197,
        "meta_ephemeris_type": 0,
        "meta_classification_type": "U",
        "meta_norad_cat_id": 36011,
        "meta_element_set_no": 999,
        "meta_rev_at_epoch": 64657,
        "meta_bstar": 0.00031216,
        "meta_mean_motion_dot": 1.032e-05,
        "meta_mean_motion_ddot": 0,
        "tle_line1": "1 36011U 97051US  25354.87076771  .00001032  00000+0  31216-3 0  9996",
        "tle_line2": "2 36011  86.3402  31.9321 0018529 188.5725 351.0197 14.41351593646576"
      },
      "geometry": {
        "type": "Point",
        "coordinates": [
          40.33895808065714,
          68.62414619515033
        ]
      }
    },
    {
      "type": "Feature",
      "properties": {
        "norad_id": 36012,
        "name": "IRIDIUM 33 DEB",
        "group": "iridium-33-debris",
        "lat": -59.076960456686514,
        "lon": 129.2748101473302,
        "alt_km": 685.0308002968386,
        "timestamp": "2025-12-23T05:02:12.415662+00:00",
        "meta_object_name": "IRIDIUM 33 DEB",
        "meta_object_id": "1997-051UT",
        "meta_epoch": "2025-12-22T19:26:44.257344",
        "meta_mean_motion": 14.19248629,
        "meta_eccentricity": 0.02110734,
        "meta_inclination": 86.4402,
        "meta_ra_of_asc_node": 303.4712,
        "meta_arg_of_pericenter": 230.7871,
        "meta_mean_anomaly": 127.4412,
        "meta_ephemeris_type": 0,
        "meta_classification_type": "U",
        "meta_norad_cat_id": 36012,
        "meta_element_set_no": 999,
        "meta_rev_at_epoch": 65627,
        "meta_bstar": 0.0042404896,
        "meta_mean_motion_dot": 0.00011128,
        "meta_mean_motion_ddot": 0,
        "tle_line1": "1 36012U 97051UT  25356.81023446  .00011128  00000+0  42405-2 0  9992",
        "tle_line2": "2 36012  86.4402 303.4712 0211073 230.7871 127.4412 14.19248629656273"
      },
      "geometry": {
        "type": "Point",
        "coordinates": [
          129.2748101473302,
          -59.076960456686514
        ]
      }
    },
    {
      "type": "Feature",
      "properties": {
        "norad_id": 36028,
        "name": "IRIDIUM 33 DEB",
        "group": "iridium-33-debris",
        "lat": -43.8331441623923,
        "lon": -61.768956608779504,
        "alt_km": 580.1860906141956,
        "timestamp": "2025-12-23T05:02:12.415672+00:00",
        "meta_object_name": "IRIDIUM 33 DEB",
        "meta_object_id": "1997-051VK",
        "meta_epoch": "2025-12-19T03:17:05.091936",
        "meta_mean_motion": 14.95591145,
        "meta_eccentricity": 0.00208389,
        "meta_inclination": 86.3218,
        "meta_ra_of_asc_node": 303.6882,
        "meta_arg_of_pericenter": 33.6007,
        "meta_mean_anomaly": 326.6539,
        "meta_ephemeris_type": 0,
        "meta_classification_type": "U",
        "meta_norad_cat_id": 36028,
        "meta_element_set_no": 999,
        "meta_rev_at_epoch": 87220,
        "meta_bstar": 0.001783846,
        "meta_mean_motion_dot": 0.00019939,
        "meta_mean_motion_ddot": 0,
        "tle_line1": "1 36028U 97051VK  25353.13686449  .00019939  00000+0  17838-2 0  9999",
        "tle_line2": "2 36028  86.3218 303.6882 0020838  33.6007 326.6539 14.95591145872206"
      },
      "geometry": {
        "type": "Point",
        "coordinates": [
          -61.768956608779504,
          -43.8331441623923
        ]
      }
    },
    {
      "type": "Feature",
      "properties": {
        "norad_id": 36080,
        "name": "IRIDIUM 33 DEB",
        "group": "iridium-33-debris",
        "lat": 46.13845285834199,
        "lon": 179.58511005905973,
        "alt_km": 719.4869302625393,
        "timestamp": "2025-12-23T05:02:12.415683+00:00",
        "meta_object_name": "IRIDIUM 33 DEB",
        "meta_object_id": "1997-051VM",
        "meta_epoch": "2025-12-19T07:27:26.572608",
        "meta_mean_motion": 14.4663152,
        "meta_eccentricity": 0.0018893,
        "meta_inclination": 86.3193,
        "meta_ra_of_asc_node": 5.1242,
        "meta_arg_of_pericenter": 135.9522,
        "meta_mean_anomaly": 224.319,
        "meta_ephemeris_type": 0,
        "meta_classification_type": "U",
        "meta_norad_cat_id": 36080,
        "meta_element_set_no": 999,
        "meta_rev_at_epoch": 47509,
        "meta_bstar": 0.00042458,
        "meta_mean_motion_dot": 1.555e-05,
        "meta_mean_motion_ddot": 0,
        "tle_line1": "1 36080U 97051VM  25353.31072422  .00001555  00000+0  42458-3 0  9999",
        "tle_line2": "2 36080  86.3193   5.1242 0018893 135.9522 224.3190 14.46631520475097"
      },
      "geometry": {
        "type": "Point",
        "coordinates": [
          179.58511005905973,
          46.13845285834199
        ]
      }
    }
  ]
}